{
  "type": "FeatureCollection",
  "features": [
    {
      "type": "Feature",
      "properties": {
        "norad_id": 26766,
        "name": "INTELSAT 10 (IS-10)",
        "group": "intelsat",
        "lat": 6.356536468872864,
        "lon": -166.0511803599345,
        "alt_km": 36126.99734658003,
        "timestamp": "2025-12-18T23:35:48.714700+00:00",
        "meta_object_name": "INTELSAT 10 (IS-10)",
        "meta_object_id": "2001-019A",
        "meta_epoch": "2025-12-18T14:52:33.938400",
        "meta_mean_motion": 0.99076086,
        "meta_eccentricity": 0.00076796,
        "meta_inclination": 8.6428,
        "meta_ra_of_asc_node": 61.0982,
        "meta_arg_of_pericenter": 228.2335,
        "meta_mean_anomaly": 134.7719,
        "meta_ephemeris_type": 0,
        "meta_classification_type": "U",
        "meta_norad_cat_id": 26766,
        "meta_element_set_no": 999,
        "meta_rev_at_epoch": 4379,
        "meta_bstar": 0,
        "meta_mean_motion_dot": -1.62e-06,
        "meta_mean_motion_ddot": 0,
        "tle_line1": "1 26766U 01019A   25352.61983725 -.00000162  00000+0  00000+0 0  9994",
        "tle_line2": "2 26766   8.6428  61.0982 0007679 228.2335 134.7719  0.99076086 43797"
      },
      "geometry": {
        "type": "Point",
        "coordinates": [
          -166.0511803599345,
          6.356536468872864
        ]
      }
    },
    {
      "type": "Feature",
      "properties": {
        "norad_id": 26900,
        "name": "INTELSAT 902 (IS-902)",
        "group": "intelsat",
        "lat": -3.793132041974655,
        "lon": 31.842548724418386,
        "alt_km": 35798.949592625846,
        "timestamp": "2025-12-18T23:35:48.714724+00:00",
        "meta_object_name": "INTELSAT 902 (IS-902)",
        "meta_object_id": "2001-039A",
        "meta_epoch": "2025-12-15T13:09:02.081664",
        "meta_mean_motion": 1.0027087,
        "meta_eccentricity": 0.00045028,
        "meta_inclination": 5.6536,
        "meta_ra_of_asc_node": 74.0372,
        "meta_arg_of_pericenter": 189.6359,
        "meta_mean_anomaly": 327.9329,
        "meta_ephemeris_type": 0,
        "meta_classification_type": "U",
        "meta_norad_cat_id": 26900,
        "meta_element_set_no": 999,
        "meta_rev_at_epoch": 8885,
        "meta_bstar": 0,
        "meta_mean_motion_dot": -2.65e-06,
        "meta_mean_motion_ddot": 0,
        "tle_line1": "1 26900U 01039A   25349.54794076 -.00000265  00000+0  00000+0 0  9997",
        "tle_line2": "2 26900   5.6536  74.0372 0004502 189.6359 327.9329  1.00270870 88858"
      },
      "geometry": {
        "type": "Point",
        "coordinates": [
          31.842548724418386,
          -3.793132041974655
        ]
      }
    },
    {
      "type": "Feature",
      "properties": {
        "norad_id": 27380,
        "name": "INTELSAT 904 (IS-904)",
        "group": "intelsat",
        "lat": -2.3007876503759914,
        "lon": 50.427820798248035,
        "alt_km": 35786.900554309555,
        "timestamp": "2025-12-18T23:35:48.714740+00:00",
        "meta_object_name": "INTELSAT 904 (IS-904)",
        "meta_object_id": "2002-007A",
        "meta_epoch": "2025-12-18T11:25:59.877408",
        "meta_mean_motion": 1.00271566,
        "meta_eccentricity": 0.0001708,
        "meta_inclination": 6.4682,
        "meta_ra_of_asc_node": 71.3668,
        "meta_arg_of_pericenter": 246.0114,
        "meta_mean_anomaly": 269.9605,
        "meta_ephemeris_type": 0,
        "meta_classification_type": "U",
        "meta_norad_cat_id": 27380,
        "meta_element_set_no": 999,
        "meta_rev_at_epoch": 4995,
        "meta_bstar": 0,
        "meta_mean_motion_dot": -2.06e-06,
        "meta_mean_motion_ddot": 0,
        "tle_line1": "1 27380U 02007A   25352.47638747 -.00000206  00000+0  00000+0 0  9999",
        "tle_line2": "2 27380   6.4682  71.3668 0001708 246.0114 269.9605  1.00271566 49955"
      },
      "geometry": {
        "type": "Point",
        "coordinates": [
          50.427820798248035,
          -2.3007876503759914
        ]
      }
    },
    {
      "type": "Feature",
      "properties": {
        "norad_id": 27426,
        "name": "DIRECTV 5 (TEMPO 1)",
        "group": "intelsat",
        "lat": -4.260484176080471,
        "lon": -28.339611642409288,
        "alt_km": 35776.6053903187,
        "timestamp": "2025-12-18T23:35:48.714753+00:00",
        "meta_object_name": "DIRECTV 5 (TEMPO 1)",
        "meta_object_id": "2002-023A",
        "meta_epoch": "2025-12-18T12:57:07.933824",
        "meta_mean_motion": 1.00272746,
        "meta_eccentricity": 0.00034092,
        "meta_inclination": 4.4162,
        "meta_ra_of_asc_node": 77.586,
        "meta_arg_of_pericenter": 206.8472,
        "meta_mean_anomaly": 247.1379,
        "meta_ephemeris_type": 0,
        "meta_classification_type": "U",
        "meta_norad_cat_id": 27426,
        "meta_element_set_no": 999,
        "meta_rev_at_epoch": 8631,
        "meta_bstar": 0,
        "meta_mean_motion_dot": -3.6e-07,
        "meta_mean_motion_ddot": 0,
        "tle_line1": "1 27426U 02023A   25352.53967516 -.00000036  00000+0  00000+0 0  9995",
        "tle_line2": "2 27426   4.4162  77.5860 0003409 206.8472 247.1379  1.00272746 86318"
      },
      "geometry": {
        "type": "Point",
        "coordinates": [
          -28.339611642409288,
          -4.260484176080471
        ]
      }
    },
    {
      "type": "Feature",
      "properties": {
        "norad_id": 27438,
        "name": "INTELSAT 905 (IS-905)",
        "group": "intelsat",
        "lat": -5.024362668127154,
        "lon": -55.571916116514934,
        "alt_km": 35777.25324823553,
        "timestamp": "2025-12-18T23:35:48.714766+00:00",
        "meta_object_name": "INTELSAT 905 (IS-905)",
        "meta_object_id": "2002-027A",
        "meta_epoch": "2025-12-18T14:47:43.747584",
        "meta_mean_motion": 1.00272032,
        "meta_eccentricity": 0.00026536,
        "meta_inclination": 6.2996,
        "meta_ra_of_asc_node": 71.9887,
        "meta_arg_of_pericenter": 199.262,
        "meta_mean_anomaly": 260.947,
        "meta_ephemeris_type": 0,
        "meta_classification_type": "U",
        "meta_norad_cat_id": 27438,
        "meta_element_set_no": 999,
        "meta_rev_at_epoch": 4955,
        "meta_bstar": 0,
        "meta_mean_motion_dot": 1.13e-06,
        "meta_mean_motion_ddot": 0,
        "tle_line1": "1 27438U 02027A   25352.61647856  .00000113  00000+0  00000+0 0  9998",
        "tle_line2": "2 27438   6.2996  71.9887 0002653 199.2620 260.9470  1.00272032 49551"
      },
      "geometry": {
        "type": "Point",
        "coordinates": [
          -55.571916116514934,
          -5.024362668127154
        ]
      }
    },
    {
      "type": "Feature",
      "properties": {
        "norad_id": 27445,
        "name": "GALAXY 3C (G-3C)",
        "group": "intelsat",
        "lat": -3.2766136928419654,
        "lon": -13.083057381092981,
        "alt_km": 35791.22361232931,
        "timestamp": "2025-12-18T23:35:48.714778+00:00",
        "meta_object_name": "GALAXY 3C (G-3C)",
        "meta_object_id": "2002-030A",
        "meta_epoch": "2025-12-18T14:33:26.923104",
        "meta_mean_motion": 1.00271936,
        "meta_eccentricity": 0.0001144,
        "meta_inclination": 3.2778,
        "meta_ra_of_asc_node": 80.4479,
        "meta_arg_of_pericenter": 77.3007,
        "meta_mean_anomaly": 53.2192,
        "meta_ephemeris_type": 0,
        "meta_classification_type": "U",
        "meta_norad_cat_id": 27445,
        "meta_element_set_no": 999,
        "meta_rev_at_epoch": 4468,
        "meta_bstar": 0,
        "meta_mean_motion_dot": -1.3e-06,
        "meta_mean_motion_ddot": 0,
        "tle_line1": "1 27445U 02030A   25352.60656161 -.00000130  00000+0  00000+0 0  9998",
        "tle_line2": "2 27445   3.2778  80.4479 0001144  77.3007  53.2192  1.00271936 44680"
      },
      "geometry": {
        "type": "Point",
        "coordinates": [
          -13.083057381092981,
          -3.2766136928419654
        ]
      }
    },
    {
      "type": "Feature",
      "properties": {
        "norad_id": 27513,
        "name": "INTELSAT 906 (IS-906)",
        "group": "intelsat",
        "lat": 5.058947590946583,
        "lon": 145.7784194151707,
        "alt_km": 35801.057391646806,
        "timestamp": "2025-12-18T23:35:48.714791+00:00",
        "meta_object_name": "INTELSAT 906 (IS-906)",
        "meta_object_id": "2002-041A",
        "meta_epoch": "2025-12-18T08:27:45.689760",
        "meta_mean_motion": 1.00272436,
        "meta_eccentricity": 0.00063032,
        "meta_inclination": 5.3436,
        "meta_ra_of_asc_node": 75.1654,
        "meta_arg_of_pericenter": 197.1731,
        "meta_mean_anomaly": 5.944,
        "meta_ephemeris_type": 0,
        "meta_classification_type": "U",
        "meta_norad_cat_id": 27513,
        "meta_element_set_no": 999,
        "meta_rev_at_epoch": 8521,
        "meta_bstar": 0,
        "meta_mean_motion_dot": 3.3e-07,
        "meta_mean_motion_ddot": 0,
        "tle_line1": "1 27513U 02041A   25352.35261215  .00000033  00000+0  00000+0 0  9991",
        "tle_line2": "2 27513   5.3436  75.1654 0006303 197.1731   5.9440  1.00272436 85213"
      },
      "geometry": {
        "type": "Point",
        "coordinates": [
          145.7784194151707,
          5.058947590946583
        ]
      }
    }
  ]
}